[{"OBJECT_NAME":"JILIN-1 GAOFEN 3D05","OBJECT_ID":"2022-046C","EPOCH":"2026-03-09T22:14:05.502048","MEAN_MOTION":15.79566561,"ECCENTRICITY":0.00034624,"INCLINATION":97.4788,"RA_OF_ASC_NODE":183.2966,"ARG_OF_PERICENTER":238.0487,"MEAN_ANOMALY":122.0443,"EPHEMERIS_TYPE":0,"CLASSIFICATION_TYPE":"U","NORAD_CAT_ID":52390,"ELEMENT_SET_NO":999,"REV_AT_EPOCH":21496,"BSTAR":0.0012407399,"MEAN_MOTION_DOT":0.00230534,"MEAN_MOTION_DDOT":0},{"OBJECT_NAME":"STARLINK-36381","OBJECT_ID":"2026-037W","EPOCH":"2026-03-09T22:00:01.999584","MEAN_MOTION":15.81989309,"ECCENTRICITY":0.0001603,"INCLINATION":42.9989,"RA_OF_ASC_NODE":196.961,"ARG_OF_PERICENTER":276.4855,"MEAN_ANOMALY":299.2288,"EPHEMERIS_TYPE":0,"CLASSIFICATION_TYPE":"U","NORAD_CAT_ID":67952,"ELEMENT_SET_NO":999,"REV_AT_EPOCH":323,"BSTAR":0.00027898687,"MEAN_MOTION_DOT":0.00058536,"MEAN_MOTION_DDOT":0}]
